NORAD_CAT_ID,OBJECT_NAME,OBJECT_TYPE,EPOCH,MEAN_MOTION,ECCENTRICITY,INCLINATION,RA_OF_ASC_NODE,ARG_OF_PERICENTER,MEAN_ANOMALY,BSTAR,MEAN_MOTION_DOT,MEAN_MOTION_DDOT,TLE_LINE0,TLE_LINE1,TLE_LINE2,SEMIMAJOR_AXIS,PERIOD,APOGEE,PERIGEE,DECAYED
52296.0,STARLINK-3766,PAYLOAD,2022-08-21 22:00:00,15.08859049,0.0001494,53.2186,156.0584,69.9183,127.3559,-0.0012382,-0.0001995,0.0,0 STARLINK-3766,1 52296U 22041AM  22233.91667824 -.00019950  00000-0 -12382-2 0  9992,2 52296  53.2186 156.0584 0001494  69.9183 127.3559 15.08859049 20119,6917.821999999999,95.436,540.721,538.654,0.0
52296.0,STARLINK-3766,PAYLOAD,2022-08-22 12:00:00,15.08850589,0.0001559,53.2184,153.4396,70.1739,57.4121,-0.0026175,-0.00041717,0.0,0 STARLINK-3766,1 52296U 22041AM  22234.50001157 -.00041717  00000-0 -26175-2 0  9990,2 52296  53.2184 153.4396 0001559  70.1739  57.4121 15.08850589  1300,6917.848000000001,95.437,540.7919999999998,538.635,0.0
52296.0,STARLINK-3766,PAYLOAD,2022-08-22 22:00:00,15.08847247,0.0001629,53.2185,151.5698,72.8409,159.226,-0.0014056,-0.00022593,0.0,0 STARLINK-3766,1 52296U 22041AM  22234.91667824 -.00022593  00000-0 -14056-2 0  9990,2 52296  53.2185 151.5698 0001629  72.8409 159.2260 15.08847247  1308,6917.858,95.437,540.85,538.596,0.0
52296.0,STARLINK-3766,PAYLOAD,2022-08-23 06:00:00,15.08817664,0.0001686999999999,53.2181,150.0746,66.2899,177.3692,0.0023844,0.00037841,0.0,0 STARLINK-3766,1 52296U 22041AM  22235.25001157  .00037841  00000-0  23844-2 0  9994,2 52296  53.2181 150.0746 0001687  66.2899 177.3692 15.08817664 20318,6917.949000000001,95.439,540.981,538.6469999999998,0.0
52296.0,STARLINK-3766,PAYLOAD,2022-08-23 14:00:01,15.08817573,0.0001601,53.2182,148.5766,74.4464,180.8034,0.0022052,0.00034961,0.0,0 STARLINK-3766,1 52296U 22041AM  22235.58334491  .00034961  00000-0  22052-2 0  9990,2 52296  53.2182 148.5766 0001601  74.4464 180.8034 15.08817573  1304,6917.949000000001,95.439,540.922,538.706,0.0
52296.0,STARLINK-3766,PAYLOAD,2022-08-23 22:00:01,15.08856176,0.0001681,53.2183,147.0813,74.02199999999998,192.8724,-0.0015465,-0.00024827,0.0,0 STARLINK-3766,1 52296U 22041AM  22235.91668981 -.00024827  00000-0 -15465-2 0  9993,2 52296  53.2183 147.0813 0001681  74.0220 192.8724 15.08856176  1307,6917.831,95.437,540.859,538.533,0.0
52296.0,STARLINK-3766,PAYLOAD,2022-08-24 14:00:01,15.08824369,0.0001657,53.2181,144.0879,75.782,214.2571,0.0025851999999999,0.00041078,0.0,0 STARLINK-3766,1 52296U 22041AM  22236.58334491  .00041078  00000-0  25852-2 0  9999,2 52296  53.2181 144.0879 0001657  75.7820 214.2571 15.08824369 20513,6917.928000000001,95.439,540.939,538.6469999999998,0.0
52296.0,STARLINK-3766,PAYLOAD,2022-08-24 22:00:00,15.08875265,0.0001705,53.2182,142.5927,73.9139,227.7149,-0.0040535,-0.00064286,0.0,0 STARLINK-3766,1 52296U 22041AM  22236.91667824 -.00064286  00000-0 -40535-2 0  9998,2 52296  53.2182 142.5927 0001705  73.9139 227.7149 15.08875265  1305,6917.773,95.435,540.817,538.4580000000002,0.0
52296.0,STARLINK-3766,PAYLOAD,2022-08-25 06:00:02,15.08818832,0.0001663,53.2179,141.0971,66.7845,246.52,0.0011731,0.0001841999999999,0.0,0 STARLINK-3766,1 52296U 22041AM  22237.25002315  .00018420  00000-0  11731-2 0  9997,2 52296  53.2179 141.0971 0001663  66.7845 246.5200 15.08818832 20610,6917.945,95.439,540.961,538.66,0.0
52296.0,STARLINK-3766,PAYLOAD,2022-08-25 14:00:01,15.08805464,0.0001618,53.2181,139.5992,75.1643,249.6651,0.0029421,0.00046802,0.0,0 STARLINK-3766,1 52296U 22041AM  22237.58334491  .00046802  00000-0  29421-2 0  9996,2 52296  53.2181 139.5992 0001618  75.1643 249.6651 15.08805464  1304,6917.986,95.44,540.97,538.732,0.0
52296.0,STARLINK-3766,PAYLOAD,2022-08-25 22:00:00,15.0884765,0.0001726,53.2183,138.10399999999998,72.2934,264.1076,-0.0015705,-0.00025201,0.0,0 STARLINK-3766,1 52296U 22041AM  22237.91667824 -.00025201  00000-0 -15705-2 0  9994,2 52296  53.2183 138.1040 0001726  72.2934 264.1076 15.08847650  1302,6917.857,95.437,540.9159999999998,538.528,0.0
52296.0,STARLINK-3766,PAYLOAD,2022-08-26 06:00:00,15.0883446,0.0001740999999999,53.2182,136.6083,66.8657,281.1246,0.00069441,0.00010779,0.0,0 STARLINK-3766,1 52296U 22041AM  22238.25001157  .00010779  00000-0  69441-3 0  9992,2 52296  53.2182 136.6083 0001741  66.8657 281.1246 15.08834460 20763,6917.897,95.438,540.967,538.558,0.0
52296.0,STARLINK-3766,PAYLOAD,2022-08-26 14:00:01,15.08818045,0.0001686,53.2184,135.1103,75.5353,284.1227,0.0032204,0.00051307,0.0,0 STARLINK-3766,1 52296U 22041AM  22238.58335648  .00051307  00000-0  32204-2 0  9991,2 52296  53.2184 135.1103 0001686  75.5353 284.1227 15.08818045  1302,6917.946999999999,95.439,540.979,538.646,0.0
52296.0,STARLINK-3766,PAYLOAD,2022-08-26 22:00:00,15.08860675,0.0001807,53.2186,133.6153,71.7182,299.4642,-0.0015407,-0.00024739,0.0,0 STARLINK-3766,1 52296U 22041AM  22238.91667824 -.00024739  00000-0 -15407-2 0  9999,2 52296  53.2186 133.6153 0001807  71.7182 299.4642 15.08860675  1301,6917.816999999999,95.436,540.932,538.432,0.0
52296.0,STARLINK-3766,PAYLOAD,2022-08-27 14:00:01,15.08812864,0.0001648,53.2187,130.6213,75.3189,319.0941,0.0025253,0.00040101,0.0,0 STARLINK-3766,1 52296U 22041AM  22239.58334491  .00040101  00000-0  25253-2 0  9993,2 52296  53.2187 130.6213 0001648  75.3189 319.0941 15.08812864  1304,6917.9630000000025,95.439,540.9680000000002,538.688,0.0
52296.0,STARLINK-3766,PAYLOAD,2022-08-27 22:00:00,15.08845422,0.0001743,53.2188,129.1265,70.531,335.4369999999999,-0.0014953,-0.00024011,0.0,0 STARLINK-3766,1 52296U 22041AM  22239.91667824 -.00024011  00000-0 -14953-2 0  9998,2 52296  53.2188 129.1265 0001743  70.5310 335.4370 15.08845422  1308,6917.864000000001,95.437,540.935,538.523,0.0
52296.0,STARLINK-3766,PAYLOAD,2022-08-28 06:00:00,15.08847845,0.0001728,53.2186,127.6303,67.0029,350.5588,7.8659e-05,9.64e-06,0.0,0 STARLINK-3766,1 52296U 22041AM  22240.25001157  .00000964  00000-0  78659-4 0  9992,2 52296  53.2186 127.6303 0001728  67.0029 350.5588 15.08847845 21079,6917.856,95.437,540.9169999999998,538.526,0.0
52296.0,STARLINK-3766,PAYLOAD,2022-08-28 14:00:01,15.08826568,0.0001641,53.2188,126.1324,76.039,353.1344,0.0031616,0.0005037,0.0,0 STARLINK-3766,1 52296U 22041AM  22240.58334491  .00050370  00000-0  31616-2 0  9994,2 52296  53.2188 126.1324 0001641  76.0390 353.1344 15.08826568  1305,6917.920999999999,95.438,540.922,538.651,0.0
52296.0,STARLINK-3766,PAYLOAD,2022-08-28 22:00:00,15.0887488,0.0001694,53.2187,124.6376,70.9454,9.8256,-0.0045159,-0.00071514,0.0,0 STARLINK-3766,1 52296U 22041AM  22240.91667824 -.00071514  00000-0 -45159-2 0  9992,2 52296  53.2187 124.6376 0001694  70.9454   9.8256 15.08874880  1303,6917.774,95.435,540.811,538.467,0.0
52296.0,STARLINK-3766,PAYLOAD,2022-08-29 06:00:02,15.08849041,0.000159,53.2184,123.1411,66.7031,25.7316,-0.0025077,-0.00039987,0.0,0 STARLINK-3766,1 52296U 22041AM  22241.25002315 -.00039987  00000-0 -25077-2 0  9993,2 52296  53.2184 123.1411 0001590  66.7031  25.7316 15.08849041 21221,6917.853,95.437,540.818,538.618,0.0
52296.0,STARLINK-3766,PAYLOAD,2022-08-29 14:00:01,15.08793829,0.0001434,53.2185,121.6433,76.3406,27.6291,0.0021941999999999,0.00034761,0.0,0 STARLINK-3766,1 52296U 22041AM  22241.58334491  .00034761  00000-0  21942-2 0  9992,2 52296  53.2185 121.6433 0001434  76.3406  27.6291 15.08793829  1301,6918.022,95.44,540.879,538.894,0.0
52296.0,STARLINK-3766,PAYLOAD,2022-08-29 22:00:00,15.0882344,0.0001523,53.2183,120.1487,70.4159,45.1117,-0.0010925,-0.00017625,0.0,0 STARLINK-3766,1 52296U 22041AM  22241.91667824 -.00017625  00000-0 -10925-2 0  9999,2 52296  53.2183 120.1487 0001523  70.4159  45.1117 15.08823440  1306,6917.931,95.439,540.85,538.742,0.0
52296.0,STARLINK-3766,PAYLOAD,2022-08-30 14:00:01,15.08805532,0.0001447,53.218,117.1544,78.6341,60.0312,0.0023803,0.00037762,0.0,0 STARLINK-3766,1 52296U 22041AM  22242.58334491  .00037762  00000-0  23803-2 0  9995,2 52296  53.2180 117.1544 0001447  78.6341  60.0312 15.08805532  1306,6917.986,95.44,540.852,538.85,0.0
52296.0,STARLINK-3766,PAYLOAD,2022-08-30 22:00:00,15.08833253,0.0001535,53.2178,115.6598,72.1689,78.0716,-0.00083872,-0.00013609,0.0,0 STARLINK-3766,1 52296U 22041AM  22242.91667824 -.00013609  00000-0 -83872-3 0  9990,2 52296  53.2178 115.6598 0001535  72.1689  78.0716 15.08833253  1305,6917.901,95.438,540.828,538.7040000000002,0.0
52296.0,STARLINK-3766,PAYLOAD,2022-08-31 14:00:01,15.08824938,0.0001481,53.2174,112.6654,80.6095,92.804,0.0021508,0.00034094,0.0,0 STARLINK-3766,1 52296U 22041AM  22243.58334491  .00034094  00000-0  21508-2 0  9991,2 52296  53.2174 112.6654 0001481  80.6095  92.8040 15.08824938  1300,6917.926,95.439,540.816,538.7669999999998,0.0
52296.0,STARLINK-3766,PAYLOAD,2022-08-31 22:00:00,15.08843913,0.0001563,53.2173,111.1707,73.0808,111.9267,-0.00042645,-7.069e-05,0.0,0 STARLINK-3766,1 52296U 22041AM  22243.91667824 -.00007069  00000-0 -42645-3 0  9997,2 52296  53.2173 111.1707 0001563  73.0808 111.9267 15.08843913  1309,6917.868,95.437,540.815,538.6519999999998,0.0
52296.0,STARLINK-3766,PAYLOAD,2022-09-01 14:00:01,15.08840031,0.0001525,53.2172,108.1761,80.9226,127.3486,0.0019233,0.00030454,0.0,0 STARLINK-3766,1 52296U 22041AM  22244.58335648  .00030454  00000-0  19233-2 0  9995,2 52296  53.2172 108.1761 0001525  80.9226 127.3486 15.08840031  1305,6917.88,95.438,540.8,538.69,0.0
52296.0,STARLINK-3766,PAYLOAD,2022-09-01 22:00:00,15.08856675,0.0001595,53.2173,106.6814,72.5806,147.24,-0.00047891,-7.905e-05,0.0,0 STARLINK-3766,1 52296U 22041AM  22244.91667824 -.00007905  00000-0 -47891-3 0  9995,2 52296  53.2173 106.6814 0001595  72.5806 147.2400 15.08856675 21777,6917.829000000002,95.436,540.798,538.591,0.0
52296.0,STARLINK-3766,PAYLOAD,2022-09-02 14:00:01,15.08828766,0.0001464,53.2176,103.6868,79.4028,163.6322,0.0017394,0.00027494,0.0,0 STARLINK-3766,1 52296U 22041AM  22245.58334491  .00027494  00000-0  17394-2 0  9997,2 52296  53.2176 103.6868 0001464  79.4028 163.6322 15.08828766  1305,6917.915,95.438,540.793,538.7669999999998,0.0
